NORAD_CAT_ID,OBJECT_NAME,OBJECT_TYPE,EPOCH,MEAN_MOTION,ECCENTRICITY,INCLINATION,RA_OF_ASC_NODE,ARG_OF_PERICENTER,MEAN_ANOMALY,BSTAR,MEAN_MOTION_DOT,MEAN_MOTION_DDOT,TLE_LINE0,TLE_LINE1,TLE_LINE2,SEMIMAJOR_AXIS,PERIOD,APOGEE,PERIGEE,DECAYED
49727.0,STARLINK-3242,PAYLOAD,2022-05-13 22:00:00,15.088000199999998,0.0002124,53.2171,304.9984,42.4638,127.2177,0.0033164,0.00052831,0.0,0 STARLINK-3242,1 49727U 21115D   22133.91667824  .00052831  00000-0  33164-2 0  9991,2 49727  53.2171 304.9984 0002124  42.4638 127.2177 15.08800020  1308,6918.003000000002,95.44,541.337,538.398,0.0
49727.0,STARLINK-3242,PAYLOAD,2022-05-14 06:00:00,15.08820865,0.0001898,53.2172,303.5002,44.5208,136.7419,-0.00070485,-0.00011483,0.0,0 STARLINK-3242,1 49727U 21115D   22134.25001157 -.00011483  00000-0 -70485-3 0  9998,2 49727  53.2172 303.5002 0001898  44.5208 136.7419 15.08820865 25846,6917.939,95.439,541.117,538.491,0.0
49727.0,STARLINK-3242,PAYLOAD,2022-05-14 14:00:01,15.08834821,0.000193,53.2175,302.0042,45.4081,147.4212,-0.00055126,-9.05e-05,0.0,0 STARLINK-3242,1 49727U 21115D   22134.58334491 -.00009050  00000-0 -55126-3 0  9996,2 49727  53.2175 302.0042 0001930  45.4081 147.4212 15.08834821  1305,6917.896,95.438,541.096,538.4259999999998,0.0
49727.0,STARLINK-3242,PAYLOAD,2022-05-14 22:00:00,15.08810964,0.0002089,53.2173,300.509,40.2914,164.13,0.0039376,0.00062889,0.0,0 STARLINK-3242,1 49727U 21115D   22134.91667824  .00062889  00000-0  39376-2 0  9997,2 49727  53.2173 300.5090 0002089  40.2914 164.1300 15.08810964 25945,6917.969,95.439,541.279,538.389,0.0
49727.0,STARLINK-3242,PAYLOAD,2022-05-15 14:00:01,15.08809137,0.0001852,53.2177,297.5069,41.7936,185.8179,0.0053222,0.0008537,0.0,0 STARLINK-3242,1 49727U 21115D   22135.58335648  .00085370  00000-0  53222-2 0  9993,2 49727  53.2177 297.5069 0001852  41.7936 185.8179 15.08809137 26043,6917.975,95.44,541.121,538.559,0.0
49727.0,STARLINK-3242,PAYLOAD,2022-05-15 22:00:00,15.08822529,0.000199,53.2173,296.0197,36.7563,202.3893,0.0037588,0.00060015,0.0,0 STARLINK-3242,1 49727U 21115D   22135.91667824  .00060015  00000-0  37588-2 0  9990,2 49727  53.2173 296.0197 0001990  36.7563 202.3893 15.08822529 26091,6917.934,95.439,541.175,538.422,0.0
49727.0,STARLINK-3242,PAYLOAD,2022-05-16 14:00:01,15.08866419,0.0001878,53.2176,293.0259,43.551,218.8007,-0.0036705,-0.00058275,0.0,0 STARLINK-3242,1 49727U 21115D   22136.58334491 -.00058275  00000-0 -36705-2 0  9992,2 49727  53.2176 293.0259 0001878  43.5510 218.8007 15.08866419 26199,6917.8,95.436,540.964,538.365,0.0
49727.0,STARLINK-3242,PAYLOAD,2022-05-16 22:00:00,15.08814988,0.0001982,53.2171,291.5305,37.4411,236.5231,0.0027692,0.0004403,0.0,0 STARLINK-3242,1 49727U 21115D   22136.91667824  .00044030  00000-0  27692-2 0  9995,2 49727  53.2171 291.5305 0001982  37.4411 236.5231 15.08814988  1303,6917.956999999999,95.439,541.193,538.451,0.0
49727.0,STARLINK-3242,PAYLOAD,2022-05-17 06:00:00,15.08821183,0.0001791,53.2172,290.0323,41.7248,243.8333,0.0035968,0.00057392,0.0,0 STARLINK-3242,1 49727U 21115D   22137.25001157  .00057392  00000-0  35968-2 0  9994,2 49727  53.2172 290.0323 0001791  41.7248 243.8333 15.08821183 26296,6917.938,95.439,541.0419999999998,538.564,0.0
49727.0,STARLINK-3242,PAYLOAD,2022-05-17 14:00:01,15.08881048,0.0001849,53.2174,288.5369,41.6702,255.5338,-0.0033118,-0.0005267,0.0,0 STARLINK-3242,1 49727U 21115D   22137.58335648 -.00052670  00000-0 -33118-2 0  9996,2 49727  53.2174 288.5369 0001849  41.6702 255.5338 15.08881048  1304,6917.755,95.435,540.899,538.341,0.0
49727.0,STARLINK-3242,PAYLOAD,2022-05-17 20:00:01,15.08844111,0.000201,53.2173,287.4157,37.3876,178.4868,-0.00011031,-2.044e-05,0.0,0 STARLINK-3242,1 49727U 21115D   22137.83334491 -.00002044  00000-0 -11031-3 0  9990,2 49727  53.2173 287.4157 0002010  37.3876 178.4868 15.08844111 26387,6917.868,95.437,541.123,538.342,0.0
49727.0,STARLINK-3242,PAYLOAD,2022-05-17 22:00:01,15.08846081,0.0001993,53.2169,287.0414,36.3419,272.4955,-0.0006218,-0.00010172,0.0,0 STARLINK-3242,1 49727U 21115D   22137.91668981 -.00010172  00000-0 -62180-3 0  9995,2 49727  53.2169 287.0414 0001993  36.3419 272.4955 15.08846081  1300,6917.861999999999,95.437,541.106,538.3480000000002,0.0
49727.0,STARLINK-3242,PAYLOAD,2022-05-18 14:00:01,15.08873923,0.0001944,53.2171,284.0481,41.6236,290.3351,-0.0032728,-0.00052048,0.0,0 STARLINK-3242,1 49727U 21115D   22138.58334491 -.00052048  00000-0 -32728-2 0  9997,2 49727  53.2171 284.0481 0001944  41.6236 290.3351 15.08873923  1300,6917.776999999999,95.435,540.987,538.297,0.0
49727.0,STARLINK-3242,PAYLOAD,2022-05-18 22:00:00,15.08842174,0.0002084,53.2167,282.5524,37.3753,306.2035,-0.0020297,-0.00032449,0.0,0 STARLINK-3242,1 49727U 21115D   22138.91667824 -.00032449  00000-0 -20297-2 0  9994,2 49727  53.2167 282.5524 0002084  37.3753 306.2035 15.08842174  1308,6917.874,95.437,541.18,538.297,0.0
49727.0,STARLINK-3242,PAYLOAD,2022-05-19 06:00:00,15.0879005,0.0001969,53.2168,281.0543,43.7179,311.4562,0.0043705,0.00069863,0.0,0 STARLINK-3242,1 49727U 21115D   22139.25001157  .00069863  00000-0  43705-2 0  9990,2 49727  53.2168 281.0543 0001969  43.7179 311.4562 15.08790050 26594,6918.033,95.441,541.26,538.536,0.0
49727.0,STARLINK-3242,PAYLOAD,2022-05-19 14:00:01,15.08846108,0.0002094,53.217,279.5593,42.0975,324.6926,-0.0010612,-0.00017141,0.0,0 STARLINK-3242,1 49727U 21115D   22139.58335648 -.00017141  00000-0 -10612-2 0  9996,2 49727  53.2170 279.5593 0002094  42.0975 324.6926 15.08846108  1308,6917.861999999999,95.437,541.175,538.278,0.0
49727.0,STARLINK-3242,PAYLOAD,2022-05-19 22:00:00,15.08849326,0.0002137,53.2167,278.0635,35.8518,342.4763,-0.0013259,-0.00021334,0.0,0 STARLINK-3242,1 49727U 21115D   22139.91667824 -.00021334  00000-0 -13259-2 0  9996,2 49727  53.2167 278.0635 0002137  35.8518 342.4763 15.08849326 26697,6917.852,95.437,541.195,538.239,0.0
49727.0,STARLINK-3242,PAYLOAD,2022-05-20 14:00:01,15.08854609,0.0002057,53.217,275.0706,36.4047,5.0923,-0.0022939,-0.00036626,0.0,0 STARLINK-3242,1 49727U 21115D   22140.58334491 -.00036626  00000-0 -22939-2 0  9997,2 49727  53.2170 275.0706 0002057  36.4047   5.0923 15.08854609  1303,6917.8359999999975,95.437,541.124,538.278,0.0
49727.0,STARLINK-3242,PAYLOAD,2022-05-20 22:00:00,15.08845156,0.0002147,53.2167,273.5746,32.259,20.8398,-0.001437,-0.00023089,0.0,0 STARLINK-3242,1 49727U 21115D   22140.91667824 -.00023089  00000-0 -14370-2 0  9992,2 49727  53.2167 273.5746 0002147  32.2590  20.8398 15.08845156 26847,6917.865,95.437,541.215,538.244,0.0
49727.0,STARLINK-3242,PAYLOAD,2022-05-21 06:00:00,15.08792711,0.0001982,53.217,272.0765,37.8038,26.8997,0.0044339,0.00070897,0.0,0 STARLINK-3242,1 49727U 21115D   22141.25001157  .00070897  00000-0  44339-2 0  9996,2 49727  53.2170 272.0765 0001982  37.8038  26.8997 15.08792711  1303,6918.025,95.441,541.261,538.519,0.0
49727.0,STARLINK-3242,PAYLOAD,2022-05-21 14:00:01,15.088502800000002,0.0002153,53.2171,270.5817,36.3245,40.0038,-0.00089311,-0.00014478,0.0,0 STARLINK-3242,1 49727U 21115D   22141.58335648 -.00014478  00000-0 -89311-3 0  9992,2 49727  53.2171 270.5817 0002153  36.3245  40.0038 15.08850280 26947,6917.849,95.437,541.203,538.225,0.0
49727.0,STARLINK-3242,PAYLOAD,2022-05-21 22:00:00,15.08862735,0.0002168,53.2168,269.0855,31.0886,56.7832,-0.0030837,-0.00049063,0.0,0 STARLINK-3242,1 49727U 21115D   22141.91667824 -.00049063  00000-0 -30837-2 0  9999,2 49727  53.2168 269.0855 0002168  31.0886  56.7832 15.08862735  1304,6917.811,95.436,541.1759999999998,538.1759999999998,0.0
49727.0,STARLINK-3242,PAYLOAD,2022-05-22 14:00:01,15.08858644,0.000211,53.2171,266.0927,32.6211,78.4213,-0.0034936,-0.00055491,0.0,0 STARLINK-3242,1 49727U 21115D   22142.58334491 -.00055491  00000-0 -34936-2 0  9990,2 49727  53.2171 266.0927 0002110  32.6211  78.4213 15.08858644  1309,6917.823,95.436,541.148,538.229,0.0
49727.0,STARLINK-3242,PAYLOAD,2022-05-22 22:00:01,15.08838306,0.0002154,53.2167,264.5962,30.4551,92.2531,-0.001504,-0.00024144,0.0,0 STARLINK-3242,1 49727U 21115D   22142.91668981 -.00024144  00000-0 -15040-2 0  9997,2 49727  53.2167 264.5962 0002154  30.4551  92.2531 15.08838306 27147,6917.886,95.438,541.241,538.26,0.0
49727.0,STARLINK-3242,PAYLOAD,2022-05-23 14:00:01,15.08847994,0.0002125,53.2169,261.6038,33.101,112.6874,-0.0015644,-0.00025106,0.0,0 STARLINK-3242,1 49727U 21115D   22143.58334491 -.00025106  00000-0 -15644-2 0  9996,2 49727  53.2169 261.6038 0002125  33.1010 112.6874 15.08847994 27251,6917.856,95.437,541.191,538.251,0.0
49727.0,STARLINK-3242,PAYLOAD,2022-05-23 22:00:01,15.08849789,0.0002208,53.2165,260.1071,34.0191,123.4257,-0.0037635,-0.00059706,0.0,0 STARLINK-3242,1 49727U 21115D   22143.91668981 -.00059706  00000-0 -37635-2 0  9994,2 49727  53.2165 260.1071 0002208  34.0191 123.4257 15.08849789  1307,6917.85,95.437,541.243,538.188,0.0
49727.0,STARLINK-3242,PAYLOAD,2022-05-24 14:47:36,15.08818665,0.0002065,53.2182,256.965,39.4293,320.6849,-4.0806e-05,-9.37e-06,0.0,0 STARLINK-3242,1 49727U 21115D   22144.61639941 -.00000937  00000-0 -40806-4 0  9994,2 49727  53.2182 256.9650 0002065  39.4293 320.6849 15.08818665 26297,6917.946,95.439,541.239,538.382,0.0
49727.0,STARLINK-3242,PAYLOAD,2022-05-24 22:00:00,15.08839571,0.0002225,53.2162,255.618,37.501,154.5739,-0.00074477,-0.00012122,0.0,0 STARLINK-3242,1 49727U 21115D   22144.91667824 -.00012122  00000-0 -74477-3 0  9997,2 49727  53.2162 255.6180 0002225  37.5010 154.5739 15.08839571 27453,6917.882,95.438,541.286,538.207,0.0
49727.0,STARLINK-3242,PAYLOAD,2022-05-25 12:00:00,15.08861679,0.0002196,53.2165,252.9994,40.1557,82.2073,-0.00088963,-0.00014428,0.0,0 STARLINK-3242,1 49727U 21115D   22145.50001157 -.00014428  00000-0 -88963-3 0  9990,2 49727  53.2165 252.9994 0002196  40.1557  82.2073 15.08861679 27533,6917.814,95.436,541.198,538.16,0.0
